satname,norad_id,inclination_deg,eccentricity,mean_motion_rev_per_day,perigee_km,apogee_km,l1,l2
STARLINK-1008,44714,53.0555,0.0001301,15.06398956,546.3137693860917,548.115745913432,1 44714U 19074B   25347.05589218 -.00001606  00000+0 -88933-4 0  9999,2 44714  53.0555 215.5307 0001301  85.5596 274.5542 15.06398956335698
STARLINK-1012,44718,53.0552,0.0001918,15.06393926,545.9018885120531,548.5584593599751,1 44718U 19074F   25347.03378199 -.00001712  00000+0 -96032-4 0  9992,2 44718  53.0552 215.6279 0001918 104.3620 255.7582 15.06393926335686
STARLINK-1017,44723,53.0513,0.0006961,15.17786093,507.73656586294237,517.3297568615917,1 44723U 19074L   25347.05399571  .00044136  00000+0  21587-2 0  9993,2 44723  53.0513 209.1162 0006961  91.8789 268.3002 15.17786093335788
STARLINK-1019,44724,53.0524,0.0004164,15.56273378,395.6318284957797,401.27537314814435,1 44724U 19074M   25347.25700200  .00052259  00000+0  73234-3 0  9993,2 44724  53.0524 202.9123 0004164 136.1889 223.9453 15.56273378335884
STARLINK-1020,44725,53.0532,8.53e-05,15.06369266,546.7150145563119,547.8964950902855,1 44725U 19074N   25346.96926923 -.00007416  00000+0 -47988-3 0  9997,2 44725  53.0532 235.9227 0000853 100.0858 260.0228 15.06369266335397
STARLINK-1031,44736,53.0474,0.0007698,15.59218455,384.70770790426195,395.1278050073024,1 44736U 19074Z   25347.26472911  .00145184  00000+0  17888-2 0  9994,2 44736  53.0474 189.7238 0007698  90.3372 269.8522 15.59218455336080
STARLINK-1036,44741,53.0561,0.0001557,15.06388721,546.1678445116731,548.3244088173169,1 44741U 19074AE  25347.13145477  .00000248  00000+0  35563-4 0  9993,2 44741  53.0561 235.1919 0001557  97.5860 262.5306 15.06388721335427
STARLINK-1039,44744,53.0501,0.0002912,15.1528684,518.0991068046769,522.1166446202924,1 44744U 19074AH  25347.17354831  .00015660  00000+0  83646-3 0  9994,2 44744  53.0501 250.6039 0002912  46.9493 313.1744 15.15286840335210
STARLINK-1042,44747,53.0456,0.0001887,15.45386309,428.9584747185427,431.5279574120859,1 44747U 19074AL  25347.17672589  .00029396  00000+0  61207-3 0  9990,2 44747  53.0456 148.4210 0001887 202.9955 157.0967 15.45386309336671
STARLINK-1043,44748,53.0543,0.0002733,15.44032555,432.3603841904933,436.08401973028504,1 44748U 19074AM  25347.16341848  .00053230  00000+0  11494-2 0  9997,2 44748  53.0543 249.3497 0002733 111.7868 248.3428 15.44032555335235
STARLINK-1046,44751,53.0544,0.0001418,15.0637058,546.3197002569768,548.2837546800865,1 44751U 19074AQ  25347.18489929  .00017543  00000+0  11946-2 0  9995,2 44751  53.0544 254.9524 0001418  75.9320 284.1826 15.06370580335158
STARLINK-1047,44752,53.0707,0.000132,15.30433539,473.6133022939912,475.4224031751137,1 44752U 19074AR  25347.28884065  .00014386  00000+0  49333-3 0  9991,2 44752  53.0707 188.9582 0001320 353.2900   6.8082 15.30433539336108
STARLINK-1048,44753,53.0534,0.0001545,15.0642016,546.0798143247821,548.2197279370612,1 44753U 19074AS  25346.94529345  .00006202  00000+0  43465-3 0  9999,2 44753  53.0534 216.0258 0001545  90.7454 269.3712 15.06420160335672
STARLINK-1053,44758,53.0379,0.0003309,15.67225895,364.61278138530724,369.0766102716061,1 44758U 19074AX  25346.72410867  .00088467  00000+0  80488-3 0  9997,2 44758  53.0379 158.0164 0003309 173.7654 186.3403 15.67225895336489
STARLINK-1060,44765,53.0484,0.0007591,15.76266176,335.9300225230618,346.13106268624506,1 44765U 19074BE  25347.33336806  .00097636  00000+0  60493-3 0  9995,2 44765  53.0484 199.5877 0007591 135.2794   9.1775 15.76266176  5978
STARLINK-1063,44768,53.0536,0.0001283,15.0637569,546.3975338096734,548.1745973683037,1 44768U 19074BH  25347.30653477  .00015752  00000+0  10747-2 0  9996,2 44768  53.0536 254.4090 0001283  87.7514 272.3622 15.06375690335189
STARLINK-1067,44771,53.0549,0.0001689,15.06805305,544.8001533281331,547.1391165494151,1 44771U 19074BL  25347.22898212  .00137208  00000+0  89543-2 0  9990,2 44771  53.0549 254.7583 0001689  48.8593 311.2542 15.06805305335165
STARLINK-1068,44772,53.055,0.0001452,15.18238482,510.16395974551415,512.164612839053,1 44772U 19074BM  25347.33336806  .01941137  00000+0  84603-1 0  9995,2 44772  53.0550 233.9176 0001452  97.1242 350.1784 15.18238482  5793
STARLINK-1112,44925,53.0477,0.0008015,15.64849434,368.2602450024451,379.0833945405375,1 44925U 20001M   25347.33336806  .00298773  00000+0  28982-2 0  9996,2 44925  53.0477 316.1138 0008015  40.0086 183.1435 15.64849434  5948
STARLINK-1114,44927,53.0546,0.0001432,15.06382451,546.2736260023057,548.2570612335167,1 44927U 20001P   25347.32497764  .00004511  00000+0  32170-3 0  9998,2 44927  53.0546  14.3256 0001432 104.6009 255.5139 15.06382451326839
STARLINK-1123,44930,53.0561,0.0002374,15.06430862,545.4729166751113,548.7610272610018,1 44930U 20001S   25347.33968245  .00008623  00000+0  59656-3 0  9996,2 44930  53.0561  14.2600 0002374  87.4747 272.6514 15.06430862326832
STARLINK-1144,44933,53.0438,0.0002539,15.74487252,344.38337995886104,347.7979427652999,1 44933U 20001V   25347.33336806  .00324812  00000+0  21101-2 0  9995,2 44933  53.0438 290.5632 0002539 112.7036 290.8446 15.74487252  5962
STARLINK-1094,44941,53.0565,0.00015,15.06396862,546.1823717466968,548.2599791993398,1 44941U 20001AD  25347.28626248 -.00000134  00000+0  98845-5 0  9991,2 44941  53.0565 354.5011 0001500  83.6131 276.5029 15.06396862327105
STARLINK-1122,44949,53.0563,0.0001638,15.063924,546.1004750324228,548.3692268507912,1 44949U 20001AM  25347.30837724  .00003085  00000+0  22597-3 0  9991,2 44949  53.0563 354.3974 0001638  86.0856 274.0321 15.06392400327102
STARLINK-1080,44961,53.0549,0.000125,15.0640127,546.3419974907283,548.073333657122,1 44961U 20001AZ  25347.24018683 -.00000063  00000+0  14683-4 0  9995,2 44961  53.0549 334.7061 0001250  99.8210 260.2920 15.06401270327383
STARLINK-1090,44968,53.0554,0.0001404,15.06393954,546.2577665802983,548.2024096586429,1 44968U 20001BG  25347.24386888 -.00000079  00000+0  13626-4 0  9990,2 44968  53.0554 334.6890 0001404  99.3699 260.7448 15.06393954327381
STARLINK-1132,45044,53.0584,0.0001591,15.06388526,546.1448957683933,548.3485528694719,1 45044U 20006A   25347.26968099 -.00000726  00000+0 -29831-4 0  9998,2 45044  53.0584 294.5743 0001591 100.4686 259.6483 15.06388526323716
STARLINK-1131,45047,53.0572,0.0001552,15.06390077,546.167151854801,548.3167894872968,1 45047U 20006D   25347.31213128  .00000287  00000+0  38143-4 0  9999,2 45047  53.0572 314.9218 0001552  98.0675 262.0490 15.06390077323436
STARLINK-1134,45048,53.0361,0.000458,15.32737662,464.51315424773384,470.7838937877341,1 45048U 20006E   25347.26592067  .00034389  00000+0  10790-2 0  9992,2 45048  53.0361 285.7258 0004580 359.1844   0.9148 15.32737662323843
STARLINK-1156,45054,53.0556,0.0001442,15.06393322,546.2333869086569,548.2306633355029,1 45054U 20006L   25347.28257383  .00002283  00000+0  17216-3 0  9999,2 45054  53.0556 314.5148 0001442  89.2008 270.9146 15.06393322323436
STARLINK-1159,45057,53.0537,0.0006815,15.56672409,392.67803852817906,401.91295301991977,1 45057U 20006P   25347.26972190  .00060115  00000+0  82777-3 0  9992,2 45057  53.0537 300.8462 0006815  68.5521 291.6216 15.56672409323635
STARLINK-1166,45060,53.0555,0.0001524,15.06393171,546.1770616088306,548.2879142287484,1 45060U 20006S   25347.30837531  .00000710  00000+0  66566-4 0  9994,2 45060  53.0555 314.4002 0001524  85.7280 274.3883 15.06393171323443
STARLINK-1169,45061,53.0558,0.0001299,15.0639949,546.3135180345453,548.1127239959851,1 45061U 20006T   25347.31574831  .00002348  00000+0  17647-3 0  9991,2 45061  53.0558 314.3664 0001299  91.4962 268.6176 15.06399490323441
STARLINK-1171,45062,53.0531,0.0012516,15.4006687,437.3707970422083,454.4527559395201,1 45062U 20006U   25347.33336806  .00187063  00000+0  44960-2 0  9997,2 45062  53.0531 302.9700 0012516  60.4237 155.4022 15.40066870  5689
STARLINK-1133,45064,53.0551,0.0001328,15.06390495,546.320999390312,548.1603797046564,1 45064U 20006W   25347.24755035  .00003269  00000+0  23834-3 0  9991,2 45064  53.0551 294.6735 0001328  98.5707 261.5432 15.06390495323717
STARLINK-1167,45071,53.0553,0.000125,15.06393758,546.3650178742191,548.0963597964283,1 45071U 20006AD  25347.14065514 -.00002718  00000+0 -16369-3 0  9999,2 45071  53.0553 295.1511 0001250  97.0128 263.1003 15.06393758323694
STARLINK-1168,45072,53.0542,0.0001357,15.06399739,546.2725879579402,548.1521277736638,1 45072U 20006AE  25347.27706075  .00005759  00000+0  40517-3 0  9996,2 45072  53.0542 294.5380 0001357  80.0837 280.0305 15.06399739323718
STARLINK-1172,45074,53.0558,0.0001559,15.06388432,546.16734505153,548.3266797866017,1 45074U 20006AG  25347.28810837  .00000844  00000+0  75605-4 0  9998,2 45074  53.0558 294.4930 0001559 106.9903 253.1257 15.06388432323718
STARLINK-1153,45080,53.0571,0.0001599,15.06393198,546.1250385991689,548.3397717349417,1 45080U 20006AN  25347.26598669 -.00002436  00000+0 -14473-3 0  9995,2 45080  53.0571 294.5877 0001599 100.4753 259.6416 15.06393198323710
STARLINK-1151,45081,53.0541,0.0002196,15.19149713,506.8967872890289,509.92135832420627,1 45081U 20006AP  25347.33336806  .02183897  00000+0  93156-1 0  9991,2 45081  53.0541 293.7531 0002196  55.4072 347.2075 15.19149713  5395
STARLINK-1185,45087,53.0552,0.0001332,15.06397924,546.2954633111631,548.1403778620088,1 45087U 20006AV  25347.22729484  .00016206  00000+0  11044-2 0  9997,2 45087  53.0552 274.7621 0001332  90.4970 269.6172 15.06397924323998
STARLINK-1183,45088,53.0554,0.0001598,15.06402385,546.0975787349525,548.3109177978986,1 45088U 20006AW  25347.18307123  .00006587  00000+0  46068-3 0  9991,2 45088  53.0554 274.9634 0001598  84.9029 275.2142 15.06402385323981
STARLINK-1142,45093,53.0221,0.000937,15.90661008,294.17418875561634,306.68982707645046,1 45093U 20006BB  25347.33336806  .00791291  26459-3  25019-2 0  9999,2 45093  53.0221 187.1023 0009370 215.9718  31.0129 15.90661008  5973
